0 FENGYUN 1C DEB
1 30129U 99025SJ  13281.72953705  .00000321  00000-0  21500-3 0  1150
2 30129 098.0496 352.0526 0202143 106.8360 015.4827 13.96760415343236
0 FENGYUN 1C DEB
1 30129U 99025SJ  13282.73193431  .00000226  00000-0  15779-3 0  1160
2 30129 098.0496 352.9310 0202099 104.0265 015.8467 13.96763278343379
0 FENGYUN 1C DEB
1 30129U 99025SJ  13285.74095022  .00000143  00000-0  10738-3 0  1181
2 30129 098.0492 355.5683 0202005 095.5925 026.1532 13.96765318343792
0 FENGYUN 1C DEB
1 30129U 99025SJ  13286.74322554  .00000177  00000-0  12813-3 0  1199
2 30129 098.0490 356.4465 0201967 092.7869 025.9214 13.96765512343936
0 FENGYUN 1C DEB
1 30129U 99025SJ  13288.16299058  .00000325  00000-0  21783-3 0  1202
2 30129 098.0484 357.6908 0201955 088.7955 324.9832 13.96767220344131
0 FENGYUN 1C DEB
1 30129U 99025SJ  13289.75191336  .00000259  00000-0  17740-3 0  1213
2 30129 098.0478 359.0832 0201931 084.3321 034.6338 13.96767794344355
0 FENGYUN 1C DEB
1 30129U 99025SJ  13290.75552361  .00000308  00000-0  20746-3 0  1220
2 30129 098.0476 359.9628 0201926 081.5122 041.1358 13.96767941344491
0 FENGYUN 1C DEB
1 30129U 99025SJ  13292.17458419  .00000406  00000-0  26657-3 0  1234
2 30129 098.0472 001.2062 0201988 077.5244 336.6703 13.96767665344695
0 FENGYUN 1C DEB
1 30129U 99025SJ  13293.17745203  .00000502  00000-0  32504-3 0  1241
2 30129 098.0471 002.0850 0201962 074.6995 339.4483 13.96767652344839
0 FENGYUN 1C DEB
1 30129U 99025SJ  13294.18029078  .00000562  00000-0  36145-3 0  1250
2 30129 098.0471 002.9636 0201966 071.8790 342.0767 13.96768177344979
0 FENGYUN 1C DEB
1 30129U 99025SJ  13295.18316237  .00000651  00000-0  41552-3 0  1265
2 30129 098.0471 003.8422 0201949 069.0540 344.8765 13.96768505345115
